NORAD_CAT_ID,OBJECT_NAME,OBJECT_TYPE,EPOCH,MEAN_MOTION,ECCENTRICITY,INCLINATION,RA_OF_ASC_NODE,ARG_OF_PERICENTER,MEAN_ANOMALY,BSTAR,MEAN_MOTION_DOT,MEAN_MOTION_DDOT,TLE_LINE0,TLE_LINE1,TLE_LINE2,SEMIMAJOR_AXIS,PERIOD,APOGEE,PERIGEE,DECAYED
52285.0,STARLINK-3775,PAYLOAD,2023-08-06 06:55:26,15.08837618,0.0001263,53.215,37.679,71.2521,288.8608,4.5372e-05,4.34e-06,0.0,0 STARLINK-3775,1 52285U 22041AA  23218.28850554  .00000434  00000-0  45372-4 0  9990,2 52285  53.2150  37.6790 0001263  71.2521 288.8608 15.08837618 72727,6917.888,95.438,540.626,538.879,0.0
52285.0,STARLINK-3775,PAYLOAD,2023-08-06 18:03:09,15.08817155,0.0001072,53.2156,35.5961,64.1302,295.98,-0.00013233,-2.392e-05,0.0,0 STARLINK-3775,1 52285U 22041AA  23218.75219458 -.00002392  00000-0 -13233-3 0  9991,2 52285  53.2156  35.5961 0001072  64.1302 295.9800 15.08817155 72790,6917.95,95.439,540.557,539.074,0.0
52285.0,STARLINK-3775,PAYLOAD,2023-08-07 17:53:57,15.08848267,0.0001214,53.2161,31.1363,53.3744,306.7359,0.0013942,0.00021975,0.0,0 STARLINK-3775,1 52285U 22041AA  23219.74580459  .00021975  00000-0  13942-2 0  9995,2 52285  53.2161  31.1363 0001214  53.3744 306.7359 15.08848267 72947,6917.855,95.437,540.56,538.88,0.0
52285.0,STARLINK-3775,PAYLOAD,2023-08-08 17:44:43,15.08876658,0.0001217,53.2165,26.6754,52.9681,307.1422,0.0010732,0.0001685,0.0,0 STARLINK-3775,1 52285U 22041AA  23220.73939054  .00016850  00000-0  10732-2 0  9995,2 52285  53.2165  26.6754 0001217  52.9681 307.1422 15.08876658 73090,6917.768,95.435,540.475,538.791,0.0
52285.0,STARLINK-3775,PAYLOAD,2023-08-09 06:27:47,15.08865627,9.98e-05,53.2173,24.2973,30.8407,329.2643,0.00052235,8.041e-05,0.0,0 STARLINK-3775,1 52285U 22041AA  23221.26930508  .00008041  00000-0  52235-3 0  9997,2 52285  53.2173  24.2973 0000998  30.8407 329.2643 15.08865627 73175,6917.802,95.436,540.357,538.977,0.0
52285.0,STARLINK-3775,PAYLOAD,2023-08-09 17:35:29,15.08849182,0.0001049,53.2168,22.2151,64.4911,295.619,9.677e-05,1.253e-05,0.0,0 STARLINK-3775,1 52285U 22041AA  23221.73298473  .00001253  00000-0  96770-4 0  9998,2 52285  53.2168  22.2151 0001049  64.4911 295.6190 15.08849182 73245,6917.852,95.437,540.443,538.992,0.0
52285.0,STARLINK-3775,PAYLOAD,2023-08-10 11:04:44,15.08843937,0.0001037,53.2169,18.9444,67.6195,292.4907,0.00041931,6.392e-05,0.0,0 STARLINK-3775,1 52285U 22041AA  23222.46162686  .00006392  00000-0  41931-3 0  9992,2 52285  53.2169  18.9444 0001037  67.6195 292.4907 15.08843937 73354,6917.868,95.437,540.451,539.016,0.0
52285.0,STARLINK-3775,PAYLOAD,2023-08-11 02:58:35,15.0884466,0.0001029,53.2163,15.9712,61.4261,298.6834,6.2787e-05,7.12e-06,0.0,0 STARLINK-3775,1 52285U 22041AA  23223.12402396  .00000712  00000-0  62787-4 0  9994,2 52285  53.2163  15.9712 0001029  61.4261 298.6834 15.08844660 73452,6917.866,95.437,540.443,539.019,0.0
52285.0,STARLINK-3775,PAYLOAD,2023-08-11 17:17:04,15.08839021,8.92e-05,53.2168,13.2945,81.402,278.7073,0.00010247,1.343e-05,0.0,0 STARLINK-3775,1 52285U 22041AA  23223.72018752  .00001343  00000-0  10247-3 0  9993,2 52285  53.2168  13.2945 0000892  81.4020 278.7073 15.08839021 73547,6917.883,95.438,540.365,539.131,0.0
52285.0,STARLINK-3775,PAYLOAD,2023-08-13 02:40:10,15.08841972,9.92e-05,53.2172,7.0487,72.7382,287.3719,8.4609e-05,1.059e-05,0.0,0 STARLINK-3775,1 52285U 22041AA  23225.11123075  .00001059  00000-0  84609-4 0  9991,2 52285  53.2172   7.0487 0000992  72.7382 287.3719 15.08841972 73753,6917.874,95.437,540.426,539.053,0.0
52285.0,STARLINK-3775,PAYLOAD,2023-08-14 02:30:57,15.08832213,9.26e-05,53.2167,2.5882,91.2624,268.8474,2.3772e-05,9.1e-07,0.0,0 STARLINK-3775,1 52285U 22041AA  23226.10483555  .00000091  00000-0  23772-4 0  9992,2 52285  53.2167   2.5882 0000926  91.2624 268.8474 15.08832213 73905,6917.904,95.438,540.41,539.129,0.0
52285.0,STARLINK-3775,PAYLOAD,2023-08-14 12:03:16,15.08838295,4.8e-05,53.2168,0.8073,103.6997,256.4049,0.00010452,1.376e-05,0.0,0 STARLINK-3775,1 52285U 22041AA  23226.50227220  .00001376  00000-0  10452-3 0  9998,2 52285  53.2168   0.8073 0000480 103.6997 256.4049 15.08838295 73968,6917.886,95.438,540.083,539.419,0.0
52285.0,STARLINK-3775,PAYLOAD,2023-08-16 02:12:31,15.0884571,0.0001067,53.2167,353.6671,81.5992,278.5121,9.1643e-05,1.171e-05,0.0,0 STARLINK-3775,1 52285U 22041AA  23228.09203183  .00001171  00000-0  91643-4 0  9991,2 52285  53.2167 353.6671 0001067  81.5992 278.5121 15.08845710 74205,6917.863,95.437,540.466,538.99,0.0
52285.0,STARLINK-3775,PAYLOAD,2023-08-16 08:34:04,15.08836862,0.0001223,53.2169,352.4758,95.1153,264.9979,0.00011426,1.531e-05,0.0,0 STARLINK-3775,1 52285U 22041AA  23228.35699679  .00001531  00000-0  11426-3 0  9999,2 52285  53.2169 352.4758 0001223  95.1153 264.9979 15.08836862 74246,6917.89,95.438,540.601,538.909,0.0
52285.0,STARLINK-3775,PAYLOAD,2023-08-17 11:35:38,15.08818297,9.33e-05,53.2167,347.4223,111.2158,248.8934,0.00085752,0.00013378,0.0,0 STARLINK-3775,1 52285U 22041AA  23229.48308779  .00013378  00000-0  85752-3 0  9997,2 52285  53.2167 347.4223 0000933 111.2158 248.8934 15.08818297 74410,6917.947,95.439,540.457,539.166,0.0
52285.0,STARLINK-3775,PAYLOAD,2023-08-18 14:37:11,15.08838931,9.77e-05,53.2175,342.3694,79.6327,280.4775,0.00012856,1.759e-05,0.0,0 STARLINK-3775,1 52285U 22041AA  23230.60915535  .00001759  00000-0  12856-3 0  9992,2 52285  53.2175 342.3694 0000977  79.6327 280.4775 15.08838931 74588,6917.884,95.438,540.425,539.073,0.0
52285.0,STARLINK-3775,PAYLOAD,2023-08-20 01:35:40,15.08834657,9.06e-05,53.2182,335.8286,92.2234,267.8862,9.951e-05,1.296e-05,0.0,0 STARLINK-3775,1 52285U 22041AA  23232.06644009  .00001296  00000-0  99510-4 0  9998,2 52285  53.2182 335.8286 0000906  92.2234 267.8862 15.08834657 74802,6917.897,95.438,540.388,539.135,0.0
52285.0,STARLINK-3775,PAYLOAD,2023-08-21 12:34:09,15.0884059,0.0001029,53.2175,329.2856,86.8594,273.2516,6.812e-05,7.97e-06,0.0,0 STARLINK-3775,1 52285U 22041AA  23233.52371967  .00000797  00000-0  68120-4 0  9998,2 52285  53.2175 329.2856 0001029  86.8594 273.2516 15.08840590 75024,6917.879,95.438,540.455,539.032,0.0
52285.0,STARLINK-3775,PAYLOAD,2023-08-22 12:24:57,15.08834339,0.000124,53.2186,324.8264,60.7274,299.3842,8.2063e-05,1.018e-05,0.0,0 STARLINK-3775,1 52285U 22041AA  23234.51732709  .00001018  00000-0  82063-4 0  9992,2 52285  53.2186 324.8264 0001240  60.7274 299.3842 15.08834339 75172,6917.898,95.438,540.621,538.905,0.0
52285.0,STARLINK-3775,PAYLOAD,2023-08-23 12:15:43,15.08846965,0.0001043,53.2197,320.3625,77.2957,282.8152,7.9374e-05,9.76e-06,0.0,0 STARLINK-3775,1 52285U 22041AA  23235.51091788  .00000976  00000-0  79374-4 0  9991,2 52285  53.2197 320.3625 0001043  77.2957 282.8152 15.08846965 75324,6917.859,95.437,540.446,539.003,0.0
52285.0,STARLINK-3775,PAYLOAD,2023-08-24 12:06:28,15.08864009,0.0001101,53.2178,315.9034,75.7702,284.3412,0.00024096,3.552e-05,0.0,0 STARLINK-3775,1 52285U 22041AA  23236.50450119  .00003552  00000-0  24096-3 0  9991,2 52285  53.2178 315.9034 0001101  75.7702 284.3412 15.08864009 75474,6917.807,95.436,540.434,538.91,0.0
52285.0,STARLINK-3775,PAYLOAD,2023-08-25 10:21:55,15.08828741,0.0001444,53.2174,311.7448,83.4934,276.6223,-3.336e-05,-8.19e-06,0.0,0 STARLINK-3775,1 52285U 22041AA  23237.43188927 -.00000819  00000-0 -33360-4 0  9999,2 52285  53.2174 311.7448 0001444  83.4934 276.6223 15.08828741 75619,6917.915,95.438,540.779,538.781,0.0
52285.0,STARLINK-3775,PAYLOAD,2023-08-25 11:57:18,15.08830271,0.0001344,53.2177,311.4435,99.0627,261.0517,-1.5929e-05,-5.41e-06,0.0,0 STARLINK-3775,1 52285U 22041AA  23237.49812694 -.00000541  00000-0 -15929-4 0  9993,2 52285  53.2177 311.4435 0001344  99.0627 261.0517 15.08830271 74395,6917.91,95.438,540.705,538.845,0.0
52285.0,STARLINK-3775,PAYLOAD,2023-08-25 13:32:41,15.08830709,0.0001222,53.2167,311.1468,91.8972,268.216,1.7212e-05,-1.4e-07,0.0,0 STARLINK-3775,1 52285U 22041AA  23237.56436644 -.00000014  00000-0  17212-4 0  9999,2 52285  53.2167 311.1468 0001222  91.8972 268.2160 15.08830709 74406,6917.909,95.438,540.619,538.928,0.0
52285.0,STARLINK-3775,PAYLOAD,2023-08-26 10:12:41,15.08840841,9.15e-05,53.2172,307.2797,78.6588,281.4506,-1.2736e-05,-4.9e-06,0.0,0 STARLINK-3775,1 52285U 22041AA  23238.42548487 -.00000490  00000-0 -12736-4 0  9999,2 52285  53.2172 307.2797 0000915  78.6588 281.4506 15.08840841 75766,6917.878,95.438,540.376,539.11,0.0
52285.0,STARLINK-3775,PAYLOAD,2023-08-27 10:03:29,15.08828698,0.0001446,53.2172,302.819,98.83,261.2856,0.00010804,1.431e-05,0.0,0 STARLINK-3775,1 52285U 22041AA  23239.41909309  .00001431  00000-0  10804-3 0  9990,2 52285  53.2172 302.8190 0001446  98.8300 261.2856 15.08828698 75917,6917.915,95.438,540.78,538.78,0.0
52285.0,STARLINK-3775,PAYLOAD,2023-08-27 14:49:39,15.08829779,0.0001374,53.2167,301.9265,93.9614,266.1535,0.00010848,1.439e-05,0.0,0 STARLINK-3775,1 52285U 22041AA  23239.61781385  .00001439  00000-0  10848-3 0  9990,2 52285  53.2167 301.9265 0001374  93.9614 266.1535 15.08829779 74714,6917.912,95.438,540.727,538.826,0.0
52285.0,STARLINK-3775,PAYLOAD,2023-08-28 08:18:52,15.08844128,0.000129,53.2162,298.6564,84.6191,275.4948,0.00013751,1.901e-05,0.0,0 STARLINK-3775,1 52285U 22041AA  23240.34644605  .00001901  00000-0  13751-3 0  9995,2 52285  53.2162 298.6564 0001290  84.6191 275.4948 15.08844128 76052,6917.868,95.437,540.625,538.84,0.0
52285.0,STARLINK-3775,PAYLOAD,2023-08-28 21:01:58,15.08842017,0.0001384,53.2166,296.2776,84.7905,275.3246,0.00013385,1.843e-05,0.0,0 STARLINK-3775,1 52285U 22041AA  23240.87636695  .00001843  00000-0  13385-3 0  9991,2 52285  53.2166 296.2776 0001384  84.7905 275.3246 15.08842017 74900,6917.874,95.437,540.697,538.782,0.0
52285.0,STARLINK-3775,PAYLOAD,2023-08-29 09:45:03,15.08839523,0.0001315,53.216,293.8984,87.3076,272.8067,4.6291e-05,4.49e-06,0.0,0 STARLINK-3775,1 52285U 22041AA  23241.40629064  .00000449  00000-0  46291-4 0  9997,2 52285  53.2160 293.8984 0001315  87.3076 272.8067 15.08839523 76217,6917.882,95.438,540.657,538.837,0.0
